{
  "norad_id": 66360,
  "name": "STARLINK-35823",
  "history": [
    {
      "epoch": "2026-03-28T20:25:31.822464Z",
      "apogee_km": 476.10274517596827,
      "perigee_km": 474.29154602796916,
      "latitude_deg": 2.76858418522506e-05,
      "longitude_deg": 10.4954453885553,
      "height_km": 476.02720923236217,
      "semi_major_axis_km": 6853.334145601968,
      "eccentricity": 0.00013214,
      "inclination_deg": 53.1563,
      "raan_deg": 143.1436,
      "arg_perigee_deg": 85.7224,
      "mean_anomaly_deg": 274.3928,
      "mean_motion_rev_day": 15.30206003
    },
    {
      "epoch": "2026-03-29T04:15:47.657088Z",
      "apogee_km": 476.25046190525336,
      "perigee_km": 474.04644530337555,
      "latitude_deg": -3.659273056282695e-05,
      "longitude_deg": -108.90586428314924,
      "height_km": 476.35912315780155,
      "semi_major_axis_km": 6853.285453604314,
      "eccentricity": 0.0001608,
      "inclination_deg": 53.1581,
      "raan_deg": 141.6302,
      "arg_perigee_deg": 106.5098,
      "mean_anomaly_deg": 253.6079,
      "mean_motion_rev_day": 15.30222311
    },
    {
      "epoch": "2026-03-30T03:46:36.764544Z",
      "apogee_km": 476.2343099374939,
      "perigee_km": 474.286437335958,
      "latitude_deg": -3.0918713504500814e-05,
      "longitude_deg": -107.12834477717671,
      "height_km": 476.3497427516304,
      "semi_major_axis_km": 6853.397373636725,
      "eccentricity": 0.00014211,
      "inclination_deg": 53.1571,
      "raan_deg": 137.078,
      "arg_perigee_deg": 101.3565,
      "mean_anomaly_deg": 258.7595,
      "mean_motion_rev_day": 15.30184827
    },
    {
      "epoch": "2026-03-30T13:10:56.807904Z",
      "apogee_km": 476.1243640490311,
      "perigee_km": 474.465148220871,
      "latitude_deg": -1.1615777832764852e-05,
      "longitude_deg": 109.57978312302903,
      "height_km": 476.1451596023282,
      "semi_major_axis_km": 6853.431756134951,
      "eccentricity": 0.00012105,
      "inclination_deg": 53.1571,
      "raan_deg": 135.2559,
      "arg_perigee_deg": 86.7221,
      "mean_anomaly_deg": 273.3918,
      "mean_motion_rev_day": 15.30173312
    },
    {
      "epoch": "2026-03-31T12:41:42.582912Z",
      "apogee_km": 476.0231704782618,
      "perigee_km": 474.33382820767383,
      "latitude_deg": -1.8788349787000275e-05,
      "longitude_deg": 111.37351693796552,
      "height_km": 475.91356608845075,
      "semi_major_axis_km": 6853.315499342968,
      "eccentricity": 0.00012325,
      "inclination_deg": 53.1573,
      "raan_deg": 130.706,
      "arg_perigee_deg": 78.8866,
      "mean_anomaly_deg": 281.2273,
      "mean_motion_rev_day": 15.30212248
    },
    {
      "epoch": "2026-04-01T12:12:30.892032Z",
      "apogee_km": 476.03168758266565,
      "perigee_km": 474.3649564323532,
      "latitude_deg": 9.054386333253799e-08,
      "longitude_deg": 113.15538248017006,
      "height_km": 476.1160898867104,
      "semi_major_axis_km": 6853.33532200751,
      "eccentricity": 0.0001216,
      "inclination_deg": 53.1575,
      "raan_deg": 126.1548,
      "arg_perigee_deg": 91.3673,
      "mean_anomaly_deg": 268.7467,
      "mean_motion_rev_day": 15.30205609
    },
    {
      "epoch": "2026-04-02T11:43:18.619680Z",
      "apogee_km": 476.0331336396157,
      "perigee_km": 474.34228136778165,
      "latitude_deg": 6.309510740251026e-05,
      "longitude_deg": 114.94040999190223,
      "height_km": 475.99492396724116,
      "semi_major_axis_km": 6853.324707503699,
      "eccentricity": 0.00012336,
      "inclination_deg": 53.1578,
      "raan_deg": 121.6043,
      "arg_perigee_deg": 83.8428,
      "mean_anomaly_deg": 276.2714,
      "mean_motion_rev_day": 15.30209164
    },
    {
      "epoch": "2026-04-03T08:05:59.879040Z",
      "apogee_km": 475.89840600970547,
      "perigee_km": 474.49073170546126,
      "latitude_deg": 1.6586725154726506e-05,
      "longitude_deg": 164.48786170764663,
      "height_km": 475.87955664970355,
      "semi_major_axis_km": 6853.331568857583,
      "eccentricity": 0.0001027,
      "inclination_deg": 53.1579,
      "raan_deg": 117.6606,
      "arg_perigee_deg": 72.3624,
      "mean_anomaly_deg": 287.7489,
      "mean_motion_rev_day": 15.30206866
    },
    {
      "epoch": "2026-04-04T10:44:54.882816Z",
      "apogee_km": 476.03447622347085,
      "perigee_km": 474.32046227471164,
      "latitude_deg": -3.823576834247723e-05,
      "longitude_deg": 118.50701837195805,
      "height_km": 475.785523020496,
      "semi_major_axis_km": 6853.3144692490905,
      "eccentricity": 0.00012505,
      "inclination_deg": 53.1587,
      "raan_deg": 112.5034,
      "arg_perigee_deg": 70.2196,
      "mean_anomaly_deg": 289.8939,
      "mean_motion_rev_day": 15.30212593
    },
    {
      "epoch": "2026-04-05T07:07:36.638976Z",
      "apogee_km": 476.069639118482,
      "perigee_km": 474.3617836228086,
      "latitude_deg": -1.209451529159217e-05,
      "longitude_deg": 168.0509471623418,
      "height_km": 475.8838900057117,
      "semi_major_axis_km": 6853.352711370645,
      "eccentricity": 0.0001246,
      "inclination_deg": 53.1582,
      "raan_deg": 108.5582,
      "arg_perigee_deg": 74.3884,
      "mean_anomaly_deg": 285.7254,
      "mean_motion_rev_day": 15.30199785
    },
    {
      "epoch": "2026-04-05T18:05:58.917696Z",
      "apogee_km": 476.08868082283243,
      "perigee_km": 474.28077455106995,
      "latitude_deg": -6.499420595983608e-05,
      "longitude_deg": 0.8835397784509056,
      "height_km": 475.9358771218428,
      "semi_major_axis_km": 6853.321727686951,
      "eccentricity": 0.0001319,
      "inclination_deg": 53.1584,
      "raan_deg": 106.4343,
      "arg_perigee_deg": 80.6586,
      "mean_anomaly_deg": 279.4563,
      "mean_motion_rev_day": 15.30210162
    },
    {
      "epoch": "2026-04-06T05:04:20.966592Z",
      "apogee_km": 475.7387190463005,
      "perigee_km": 474.62944049632915,
      "latitude_deg": -1.2885879143634766e-05,
      "longitude_deg": -166.28552928868558,
      "height_km": 476.2689112849818,
      "semi_major_axis_km": 6853.3210797713145,
      "eccentricity": 8.093e-05,
      "inclination_deg": 53.1612,
      "raan_deg": 104.3077,
      "arg_perigee_deg": 109.5882,
      "mean_anomaly_deg": 250.5206,
      "mean_motion_rev_day": 15.30210379
    },
    {
      "epoch": "2026-04-07T06:09:12.177216Z",
      "apogee_km": 475.9382766368717,
      "perigee_km": 474.40286160908636,
      "latitude_deg": -2.8087770162201445e-06,
      "longitude_deg": 171.6179622830146,
      "height_km": 476.0458394318954,
      "semi_major_axis_km": 6853.307569122979,
      "eccentricity": 0.00011202,
      "inclination_deg": 53.1605,
      "raan_deg": 99.4546,
      "arg_perigee_deg": 88.278,
      "mean_anomaly_deg": 271.8349,
      "mean_motion_rev_day": 15.30214904
    },
    {
      "epoch": "2026-04-08T08:48:06.721344Z",
      "apogee_km": 476.246196119253,
      "perigee_km": 474.2148579842351,
      "latitude_deg": -9.575053292717924e-06,
      "longitude_deg": 125.6432723594988,
      "height_km": 475.8141280080463,
      "semi_major_axis_km": 6853.367527051744,
      "eccentricity": 0.0001482,
      "inclination_deg": 53.1592,
      "raan_deg": 94.3016,
      "arg_perigee_deg": 71.9797,
      "mean_anomaly_deg": 288.1365,
      "mean_motion_rev_day": 15.30194823
    },
    {
      "epoch": "2026-04-09T16:09:10.759680Z",
      "apogee_km": 476.0721609072689,
      "perigee_km": 474.3848623183094,
      "latitude_deg": -3.664836894044098e-05,
      "longitude_deg": 8.018577054415658,
      "height_km": 476.07239649924463,
      "semi_major_axis_km": 6853.365511612789,
      "eccentricity": 0.0001231,
      "inclination_deg": 53.1584,
      "raan_deg": 88.2313,
      "arg_perigee_deg": 86.3247,
      "mean_anomaly_deg": 273.7894,
      "mean_motion_rev_day": 15.30195498
    },
    {
      "epoch": "2026-04-10T09:23:45.695040Z",
      "apogee_km": 475.9820501475888,
      "perigee_km": 474.3468524213131,
      "latitude_deg": -3.9971518450249265e-05,
      "longitude_deg": 105.32926230120178,
      "height_km": 475.96959534512746,
      "semi_major_axis_km": 6853.301451284451,
      "eccentricity": 0.0001193,
      "inclination_deg": 53.1576,
      "raan_deg": 84.8957,
      "arg_perigee_deg": 83.4825,
      "mean_anomaly_deg": 276.6311,
      "mean_motion_rev_day": 15.30216953
    },
    {
      "epoch": "2026-04-11T15:10:46.848288Z",
      "apogee_km": 476.05291180212043,
      "perigee_km": 474.39302801740723,
      "latitude_deg": -3.654321277581344e-05,
      "longitude_deg": 11.584886026426007,
      "height_km": 475.924264159939,
      "semi_major_axis_km": 6853.359969909763,
      "eccentricity": 0.0001211,
      "inclination_deg": 53.1575,
      "raan_deg": 79.1293,
      "arg_perigee_deg": 76.2939,
      "mean_anomaly_deg": 283.8196,
      "mean_motion_rev_day": 15.30197354
    },
    {
      "epoch": "2026-04-13T04:48:05.054400Z",
      "apogee_km": 475.4968332498247,
      "perigee_km": 474.87770393539995,
      "latitude_deg": 2.3018218486457756e-06,
      "longitude_deg": 158.4298859065172,
      "height_km": 476.013546737996,
      "semi_major_axis_km": 6853.3242685926125,
      "eccentricity": 4.517e-05,
      "inclination_deg": 53.1554,
      "raan_deg": 71.8452,
      "arg_perigee_deg": 76.4748,
      "mean_anomaly_deg": 283.6303,
      "mean_motion_rev_day": 15.30209311
    },
    {
      "epoch": "2026-04-14T07:26:57.959520Z",
      "apogee_km": 475.7947194885219,
      "perigee_km": 474.4666932723794,
      "latitude_deg": 3.1984379267898206e-05,
      "longitude_deg": 112.45957529119444,
      "height_km": 476.24752535846636,
      "semi_major_axis_km": 6853.26770638045,
      "eccentricity": 9.689e-05,
      "inclination_deg": 53.1577,
      "raan_deg": 66.6897,
      "arg_perigee_deg": 109.2127,
      "mean_anomaly_deg": 250.8979,
      "mean_motion_rev_day": 15.30228255
    }
  ]
}